full_name,a,e,i,om,w,q,ad,per_y,data_arc,condition_code,n_obs_used,n_del_obs_used,n_dop_obs_used,H
"       (2018 YU2)",1.082919133973337,.1517418294689373,2.74994100677588,278.8130922104934,255.3436238861927,.9185950034173054,1.247243264529368,1.12694376003674,26,6,33,,,26.4
"       (2019 AD)",1.114607527418544,.1627045572895457,7.053698330233125,287.5360754235805,235.3046294632454,.9332558031183148,1.295959251718774,1.17676883934479,8,6,35,,,27.6
"       (2019 AU)",1.107375775748475,.1023985037392014,4.996233357729897,109.5337455529594,331.8642168621082,.9939821532347938,1.220769398262156,1.16533483976431,30,6,48,,,26.6
"       (2019 AX3)",1.23981186805107,.1930529550121741,3.792866105571899,278.723701296323,198.7803621030103,1.000462523264647,1.479161212837492,1.38051740436432,4,7,17,,,27.5
"       (2019 AP7)",1.181016335882937,.1163379227735144,7.816004650570893,275.024330137112,110.8122438705767,1.043619348604729,1.318413323161145,1.28348872980235,2,9,9,,,24.844
"       (2019 AP8)",1.1445539506433,.0361230353279751,2.397684294556051,106.368550720006,175.3614385317636,1.103209187849439,1.185898713437162,1.22451075914676,4014,2,67,,,24.506
"       (2019 AU9)",1.12184966966694,.1609612269227285,4.813840306013287,115.3563479464405,50.99990424627708,.9412753704144913,1.302423968919388,1.18825650057998,9,7,23,,,26.819
"       (2019 AM10)",1.158247955653875,.1358450034047177,6.152653646407814,307.0259013504746,137.9741668521212,1.000905758174568,1.315590153133183,1.24655233272451,31,6,48,,,25.175
"       (2019 AS11)",1.122880069619114,.1147343002150903,7.219025347473297,299.6776746167886,204.23141455208,.9940472106058933,1.251712928632335,1.18989396668762,13,6,22,,,26.758
"       (2019 AM12)",1.105126723650315,.0566508614110043,8.475756682968441,294.1834339762319,302.3299048598743,1.042520342787204,1.167733104513426,1.1617864947107,16,6,12,,,25.467
"       (2019 AH13)",1.178333255163094,.1297078802962466,3.948380514685551,126.1801641888956,350.8583824466334,1.025494146353312,1.331172363972875,1.27911739242179,58,6,40,,,26.137
"       (2019 AJ13)",1.100193848006539,.1946191136518426,4.47154351192488,110.914955178757,83.33692137075411,.886075096462296,1.314312599550781,1.15401650570192,4,7,9,,,28.259
"       (2019 AK13)",1.200343782172252,.2807074536551446,9.818737053615328,300.4771868521711,297.7705941309389,.8633983355678934,1.53728922877661,1.31512390795511,253,4,28,,,23.658
"       (2019 BZ)",1.087239931729165,.2718427775156803,6.736947762720839,305.1176653960862,92.19480924683553,.7916816088619502,1.38279825459638,1.13369516430839,12,6,36,,,27.588
"       (2019 BX1)",1.268720505264468,.2316514767311191,3.087247899323594,111.3552743326878,337.7166312074279,.9748195266609022,1.562621483868033,1.42908197285684,26,6,20,,,28.116
"       (2019 BL2)",1.206146522324606,.168713977456203,7.423188123444771,306.7193321751095,142.8640476593013,1.002652745148254,1.409640299500957,1.32467184484287,2,7,13,,,27.004
"       (2019 CS1)",1.067079186045768,.2844856781074645,4.688645149491612,312.7425494281751,81.74195803817759,.7635104402091767,1.37064793188236,1.10230854876729,58,5,131,,,22.093
"       (2019 CW1)",1.203139216621107,.2925881033195744,2.602871630755319,305.6811948605127,117.1842406943048,.8511149952005387,1.555163438041675,1.31972069388173,2,7,13,,,28.21
"       (2019 CC2)",1.139657813349639,.1795961193691787,4.577438757172762,127.957486743867,293.887957240355,.93497969266328,1.344335934035998,1.21666190697053,3,8,14,,,26.418
"       (2019 CZ3)",1.181716402125359,.277776536479412,5.51098189225698,308.0192474376923,103.6384974270553,.853463312842065,1.509969491408654,1.28463011148253,17,8,32,,,23.705
"       (2019 CG4)",1.219975220596525,.2819223607951653,3.85003305832113,321.9200325319163,242.6514909795634,.8760369262943503,1.5639135148987,1.34751843923189,4,7,17,,,28.945
"       (2019 CB5)",1.254725617027074,.2051956647696604,.7942654091531787,307.7141473175921,161.8122064396239,.9972613599376811,1.512189874116467,1.40550161673274,3,8,13,,,28.265
"       (2019 CE5)",1.22175927721932,.1745537534487181,6.638474368023033,343.3534509798777,133.3000833094142,1.008496609569895,1.435021944868745,1.35047537783715,73,5,200,,,23.356
"       (2019 DL)",1.255384287023122,.1539941282698894,8.840036687113278,152.9987252885409,351.1734966850921,1.06206247809928,1.448706095946964,1.40660849207202,23,7,31,,,25.316
"       (2019 DH1)",1.040601718684171,.1717928880365147,.8402156542918259,299.7199279120272,321.4978344898258,.8618337441356563,1.219369693232685,1.06153669297371,12,6,56,,,26.121
"       (2019 EF1)",1.18268459139169,.1778435093941167,8.29909126593733,348.9345299008517,214.0997576726033,.9723518131522449,1.393017369631135,1.28620919569176,4,7,32,,,26.167
"       (2019 ER1)",1.207568347122006,.1300074746259495,8.301631778651757,345.004618342586,227.1935134383599,1.050575435874442,1.364561258369571,1.32701485151017,1557,0,53,,,23.511
"       (2019 EK2)",1.05548117744624,.2619145691256414,1.452231925792887,350.6783241968452,284.3678501524712,.7790352796351829,1.331927075257296,1.08438609888451,5,8,32,,,27.622
"       (2019 ER2)",1.231999279921337,.197475304061732,3.605507235782504,180.1196370026934,34.38454827340507,.9887098475150363,1.475288712327638,1.36748913121255,21,6,33,,,25.92
"       (2019 ES2)",1.257045781763552,.2612163422245142,.9228287332181622,343.783197083728,246.2848526231861,.9286848806425221,1.585406682884582,1.40940187463349,2,8,21,,,25.815
"       (2019 FY1)",1.110908957827319,.1345392841888917,3.386966953806343,13.66450388797743,116.2352812968927,.9614480618422034,1.260369853812434,1.17091644454164,17,7,42,,,28.217
"       (2019 FU2)",1.069258822320837,.1117473924324439,7.797402222953485,189.58118968,287.3578132456869,.949771937091098,1.188745707550577,1.10568766752708,40,5,57,,,25.904
"       (2019 FV2)",1.052290968037707,.0233872463278735,3.75418830430707,12.32360534194639,245.7741146403232,1.027680779959613,1.076901156115802,1.07947345318364,202,3,82,,,24.956
"       (2019 GL1)",1.242354334136565,.1263160834466062,2.275970755201171,152.6626135550223,60.01027028298828,1.085425000395517,1.399283667877612,1.38476609433875,86,5,35,,,25.805
"       (2019 GK3)",1.109456312660476,.1387133916375079,1.710526670414698,194.2634048738178,304.3250602049975,.9555598646576982,1.263352760663254,1.16862052739188,10,6,35,,,29.499
"       (2019 GG4)",1.198340902754175,.2907419289081424,7.591319508711028,14.57226736279564,280.7428787508942,.8499329571979015,1.546748848310449,1.31183368115375,27,7,36,,,24.892
"       (2019 GH4)",1.267529629891096,.2990277410402839,1.204020243702273,278.8571899624305,194.3406633533729,.8885031079631344,1.646556151819058,1.42707034882405,22,7,25,,,24.666
"       (2019 GR5)",1.145296460412063,.141147738185798,7.470938641580318,194.886101159163,309.5681342713967,.9836404554727,1.306952465351426,1.22570252294649,2,7,13,,,26.999
"       (2019 GC6)",1.104457053354231,.175691241218087,1.255651672124686,211.6051030704205,63.8453414397772,.9104136227783555,1.298500483930107,1.16073064833399,17,5,100,,,26.51
"       (2019 JF1)",1.265603781571914,.2253114845289297,1.589768074144684,271.5897766080107,55.92428178088105,.9804487147205186,1.550758848423309,1.42381920963184,183,4,104,,,23.879
"       (2019 JY1)",1.136735530644731,.1766780758918902,9.6031078063794,222.1056065206756,297.8050128115045,.9358992842924733,1.337571776996989,1.2119853060051,3,7,20,,,28.134
"       (2019 JY2)",1.046842528329195,.2705106943168371,.1876543891544656,234.7983463032939,251.7671221892471,.7636604291504716,1.330024627507919,1.07110054130583,3,5,44,,,29.597
"       (2019 JU5)",1.071611220580668,.1928697455716498,2.623987512929383,191.2372585450343,308.1884173416679,.8649298371155492,1.278292604045786,1.10933848771747,46,2,121,1,1,23.999
"       (2019 JD6)",1.17077367408194,.2091478923632071,5.040061244684004,216.6735969267299,304.0739796962271,.9259088277133739,1.415638520450506,1.26682791549542,50,5,37,,,24.852
"       (2019 JY7)",1.051112146942652,.2378817514962445,4.577122746799337,233.6923845309955,98.59145565189098,.8010717484089557,1.301152545476348,1.07766005317635,2,6,21,,,27.722
"       (2019 KY)",1.232694338891402,.2072394501001443,7.319831333213551,69.70147000094306,227.0119884781203,.9772314419579873,1.488157235824818,1.36864654215739,34,6,38,,,26.245
"       (2019 KF2)",1.078359661439773,.129906527034767,2.505288992089188,73.12606456102253,88.93674187019761,.9382737029277448,1.218445619951801,1.11983400916628,32,6,80,,,25.224
"       (2019 KJ2)",1.052938955279529,.02301672205665585,3.177392158741668,62.95330655251907,251.4400751755119,1.028703752003234,1.077174158555823,1.08047069546627,23,6,30,,,27.15
"       (2019 KA3)",1.103447922940705,.09267477131957436,5.914063970426057,71.83975801207239,224.8393645038405,1.001186139019116,1.205709706862295,1.15914019128914,7,6,36,,,27.96
"       (2019 KC3)",1.167014083923133,.1962863881280114,9.752211438524588,151.7858073283828,347.3209276306804,.9379451044953416,1.396083063350925,1.26073075733407,46,5,19,,,22.715
"       (2019 KK3)",1.195080776015408,.1772703515545818,4.732486139408083,74.69609311195947,124.9670040074086,.9832283867150339,1.406933165315781,1.3064839922954,7,7,38,,,27.078
"       (2019 KU3)",1.29106080287472,.2773891406177306,8.676104110607088,217.6477117356561,296.6379809751351,.9329345562800644,1.649187049469376,1.46699369137772,43,5,31,,,22.606
"       (2019 KD4)",1.103234889385969,.1476323305910285,4.176151872454228,246.8795143636035,283.4925734109974,.9403617514765832,1.266108027295356,1.15880452909148,7,7,10,,,28.14
"       (2019 LV)",1.096325310637545,.1496375145307829,4.930895390650575,81.19804748126343,47.45667473660929,.9322739160365544,1.260376705238536,1.14793517387092,30,7,15,,,24.263
"       (2019 LN1)",1.2799183590791,.1857401073734565,7.601540003220498,256.997448493927,9.89875320130143,1.04218618563449,1.517650532523711,1.44804348892672,108,5,49,,,24.244
